<?xml version="1.0" encoding="UTF-8"?>
<ndm xmlns:xsi="http://www.w3.org/2001/XMLSchema-instance" xsi:noNamespaceSchemaLocation="https://sanaregistry.org/r/ndmxml_unqualified/ndmxml-2.0.0-master-2.0.xsd">
<omm id="CCSDS_OMM_VERS" version="2.0">
<header><CREATION_DATE/><ORIGINATOR/></header><body><segment><metadata><OBJECT_NAME>KUIPER-00044</OBJECT_NAME><OBJECT_ID>2025-134F</OBJECT_ID><CENTER_NAME>EARTH</CENTER_NAME><REF_FRAME>TEME</REF_FRAME><TIME_SYSTEM>UTC</TIME_SYSTEM><MEAN_ELEMENT_THEORY>SGP4</MEAN_ELEMENT_THEORY></metadata><data><meanElements><EPOCH>2025-07-17T22:00:00.999936</EPOCH><MEAN_MOTION>15.30762974</MEAN_MOTION><ECCENTRICITY>.001046</ECCENTRICITY><INCLINATION>51.8661</INCLINATION><RA_OF_ASC_NODE>213.3303</RA_OF_ASC_NODE><ARG_OF_PERICENTER>204.4899</ARG_OF_PERICENTER><MEAN_ANOMALY>311.9681</MEAN_ANOMALY></meanElements><tleParameters><EPHEMERIS_TYPE>0</EPHEMERIS_TYPE><CLASSIFICATION_TYPE>U</CLASSIFICATION_TYPE><NORAD_CAT_ID>64505</NORAD_CAT_ID><ELEMENT_SET_NO>999</ELEMENT_SET_NO><REV_AT_EPOCH>452</REV_AT_EPOCH><BSTAR>.1606E-2</BSTAR><MEAN_MOTION_DOT>.48472E-3</MEAN_MOTION_DOT><MEAN_MOTION_DDOT>0</MEAN_MOTION_DDOT></tleParameters></data></segment></body></omm>
<omm id="CCSDS_OMM_VERS" version="2.0">
<header><CREATION_DATE/><ORIGINATOR/></header><body><segment><metadata><OBJECT_NAME>KUIPER-00046</OBJECT_NAME><OBJECT_ID>2025-134G</OBJECT_ID><CENTER_NAME>EARTH</CENTER_NAME><REF_FRAME>TEME</REF_FRAME><TIME_SYSTEM>UTC</TIME_SYSTEM><MEAN_ELEMENT_THEORY>SGP4</MEAN_ELEMENT_THEORY></metadata><data><meanElements><EPOCH>2025-07-17T10:07:48.375552</EPOCH><MEAN_MOTION>15.34468756</MEAN_MOTION><ECCENTRICITY>.0009259</ECCENTRICITY><INCLINATION>51.8665</INCLINATION><RA_OF_ASC_NODE>215.6002</RA_OF_ASC_NODE><ARG_OF_PERICENTER>199.3916</ARG_OF_PERICENTER><MEAN_ANOMALY>160.6719</MEAN_ANOMALY></meanElements><tleParameters><EPHEMERIS_TYPE>0</EPHEMERIS_TYPE><CLASSIFICATION_TYPE>U</CLASSIFICATION_TYPE><NORAD_CAT_ID>64506</NORAD_CAT_ID><ELEMENT_SET_NO>999</ELEMENT_SET_NO><REV_AT_EPOCH>492</REV_AT_EPOCH><BSTAR>.7644E-3</BSTAR><MEAN_MOTION_DOT>.25647E-3</MEAN_MOTION_DOT><MEAN_MOTION_DDOT>0</MEAN_MOTION_DDOT></tleParameters></data></segment></body></omm>
<omm id="CCSDS_OMM_VERS" version="2.0">
<header><CREATION_DATE/><ORIGINATOR/></header><body><segment><metadata><OBJECT_NAME>KUIPER-00047</OBJECT_NAME><OBJECT_ID>2025-134H</OBJECT_ID><CENTER_NAME>EARTH</CENTER_NAME><REF_FRAME>TEME</REF_FRAME><TIME_SYSTEM>UTC</TIME_SYSTEM><MEAN_ELEMENT_THEORY>SGP4</MEAN_ELEMENT_THEORY></metadata><data><meanElements><EPOCH>2025-07-17T07:07:11.595936</EPOCH><MEAN_MOTION>15.34047422</MEAN_MOTION><ECCENTRICITY>.0010146</ECCENTRICITY><INCLINATION>51.8627</INCLINATION><RA_OF_ASC_NODE>216.2503</RA_OF_ASC_NODE><ARG_OF_PERICENTER>211.8854</ARG_OF_PERICENTER><MEAN_ANOMALY>148.1518</MEAN_ANOMALY></meanElements><tleParameters><EPHEMERIS_TYPE>0</EPHEMERIS_TYPE><CLASSIFICATION_TYPE>U</CLASSIFICATION_TYPE><NORAD_CAT_ID>64507</NORAD_CAT_ID><ELEMENT_SET_NO>999</ELEMENT_SET_NO><REV_AT_EPOCH>444</REV_AT_EPOCH><BSTAR>.25531E-3</BSTAR><MEAN_MOTION_DOT>.8179E-4</MEAN_MOTION_DOT><MEAN_MOTION_DDOT>0</MEAN_MOTION_DDOT></tleParameters></data></segment></body></omm>
<omm id="CCSDS_OMM_VERS" version="2.0">
<header><CREATION_DATE/><ORIGINATOR/></header><body><segment><metadata><OBJECT_NAME>KUIPER-00048</OBJECT_NAME><OBJECT_ID>2025-134J</OBJECT_ID><CENTER_NAME>EARTH</CENTER_NAME><REF_FRAME>TEME</REF_FRAME><TIME_SYSTEM>UTC</TIME_SYSTEM><MEAN_ELEMENT_THEORY>SGP4</MEAN_ELEMENT_THEORY></metadata><data><meanElements><EPOCH>2025-07-17T11:05:16.386144</EPOCH><MEAN_MOTION>15.36086374</MEAN_MOTION><ECCENTRICITY>.0002832</ECCENTRICITY><INCLINATION>51.8763</INCLINATION><RA_OF_ASC_NODE>215.1349</RA_OF_ASC_NODE><ARG_OF_PERICENTER>184.9873</ARG_OF_PERICENTER><MEAN_ANOMALY>175.1085</MEAN_ANOMALY></meanElements><tleParameters><EPHEMERIS_TYPE>0</EPHEMERIS_TYPE><CLASSIFICATION_TYPE>U</CLASSIFICATION_TYPE><NORAD_CAT_ID>64508</NORAD_CAT_ID><ELEMENT_SET_NO>999</ELEMENT_SET_NO><REV_AT_EPOCH>447</REV_AT_EPOCH><BSTAR>.75373E-3</BSTAR><MEAN_MOTION_DOT>.26614E-3</MEAN_MOTION_DOT><MEAN_MOTION_DDOT>0</MEAN_MOTION_DDOT></tleParameters></data></segment></body></omm>
<omm id="CCSDS_OMM_VERS" version="2.0">
<header><CREATION_DATE/><ORIGINATOR/></header><body><segment><metadata><OBJECT_NAME>KUIPER-00049</OBJECT_NAME><OBJECT_ID>2025-134K</OBJECT_ID><CENTER_NAME>EARTH</CENTER_NAME><REF_FRAME>TEME</REF_FRAME><TIME_SYSTEM>UTC</TIME_SYSTEM><MEAN_ELEMENT_THEORY>SGP4</MEAN_ELEMENT_THEORY></metadata><data><meanElements><EPOCH>2025-07-17T08:18:26.394912</EPOCH><MEAN_MOTION>15.35157312</MEAN_MOTION><ECCENTRICITY>.0006976</ECCENTRICITY><INCLINATION>51.8699</INCLINATION><RA_OF_ASC_NODE>215.8502</RA_OF_ASC_NODE><ARG_OF_PERICENTER>193.0130</ARG_OF_PERICENTER><MEAN_ANOMALY>167.0677</MEAN_ANOMALY></meanElements><tleParameters><EPHEMERIS_TYPE>0</EPHEMERIS_TYPE><CLASSIFICATION_TYPE>U</CLASSIFICATION_TYPE><NORAD_CAT_ID>64509</NORAD_CAT_ID><ELEMENT_SET_NO>999</ELEMENT_SET_NO><REV_AT_EPOCH>489</REV_AT_EPOCH><BSTAR>.49051E-3</BSTAR><MEAN_MOTION_DOT>.16659E-3</MEAN_MOTION_DOT><MEAN_MOTION_DDOT>0</MEAN_MOTION_DDOT></tleParameters></data></segment></body></omm>
<omm id="CCSDS_OMM_VERS" version="2.0">
<header><CREATION_DATE/><ORIGINATOR/></header><body><segment><metadata><OBJECT_NAME>KUIPER-00050</OBJECT_NAME><OBJECT_ID>2025-134L</OBJECT_ID><CENTER_NAME>EARTH</CENTER_NAME><REF_FRAME>TEME</REF_FRAME><TIME_SYSTEM>UTC</TIME_SYSTEM><MEAN_ELEMENT_THEORY>SGP4</MEAN_ELEMENT_THEORY></metadata><data><meanElements><EPOCH>2025-07-17T08:21:34.606944</EPOCH><MEAN_MOTION>15.34999552</MEAN_MOTION><ECCENTRICITY>.0007286</ECCENTRICITY><INCLINATION>51.8717</INCLINATION><RA_OF_ASC_NODE>215.8662</RA_OF_ASC_NODE><ARG_OF_PERICENTER>193.5716</ARG_OF_PERICENTER><MEAN_ANOMALY>166.5075</MEAN_ANOMALY></meanElements><tleParameters><EPHEMERIS_TYPE>0</EPHEMERIS_TYPE><CLASSIFICATION_TYPE>U</CLASSIFICATION_TYPE><NORAD_CAT_ID>64510</NORAD_CAT_ID><ELEMENT_SET_NO>999</ELEMENT_SET_NO><REV_AT_EPOCH>491</REV_AT_EPOCH><BSTAR>.60119E-3</BSTAR><MEAN_MOTION_DOT>.20412E-3</MEAN_MOTION_DOT><MEAN_MOTION_DDOT>0</MEAN_MOTION_DDOT></tleParameters></data></segment></body></omm>
<omm id="CCSDS_OMM_VERS" version="2.0">
<header><CREATION_DATE/><ORIGINATOR/></header><body><segment><metadata><OBJECT_NAME>KUIPER-00051</OBJECT_NAME><OBJECT_ID>2025-134M</OBJECT_ID><CENTER_NAME>EARTH</CENTER_NAME><REF_FRAME>TEME</REF_FRAME><TIME_SYSTEM>UTC</TIME_SYSTEM><MEAN_ELEMENT_THEORY>SGP4</MEAN_ELEMENT_THEORY></metadata><data><meanElements><EPOCH>2025-07-17T06:37:10.778016</EPOCH><MEAN_MOTION>15.35462464</MEAN_MOTION><ECCENTRICITY>.0005127</ECCENTRICITY><INCLINATION>51.8722</INCLINATION><RA_OF_ASC_NODE>216.1330</RA_OF_ASC_NODE><ARG_OF_PERICENTER>187.0103</ARG_OF_PERICENTER><MEAN_ANOMALY>173.0812</MEAN_ANOMALY></meanElements><tleParameters><EPHEMERIS_TYPE>0</EPHEMERIS_TYPE><CLASSIFICATION_TYPE>U</CLASSIFICATION_TYPE><NORAD_CAT_ID>64511</NORAD_CAT_ID><ELEMENT_SET_NO>999</ELEMENT_SET_NO><REV_AT_EPOCH>490</REV_AT_EPOCH><BSTAR>.83489E-3</BSTAR><MEAN_MOTION_DOT>.28947E-3</MEAN_MOTION_DOT><MEAN_MOTION_DDOT>0</MEAN_MOTION_DDOT></tleParameters></data></segment></body></omm>
<omm id="CCSDS_OMM_VERS" version="2.0">
<header><CREATION_DATE/><ORIGINATOR/></header><body><segment><metadata><OBJECT_NAME>KUIPER-00052</OBJECT_NAME><OBJECT_ID>2025-134N</OBJECT_ID><CENTER_NAME>EARTH</CENTER_NAME><REF_FRAME>TEME</REF_FRAME><TIME_SYSTEM>UTC</TIME_SYSTEM><MEAN_ELEMENT_THEORY>SGP4</MEAN_ELEMENT_THEORY></metadata><data><meanElements><EPOCH>2025-07-17T07:49:52.784832</EPOCH><MEAN_MOTION>15.38250448</MEAN_MOTION><ECCENTRICITY>.0003547</ECCENTRICITY><INCLINATION>51.8752</INCLINATION><RA_OF_ASC_NODE>215.7277</RA_OF_ASC_NODE><ARG_OF_PERICENTER>200.8474</ARG_OF_PERICENTER><MEAN_ANOMALY>159.2369</MEAN_ANOMALY></meanElements><tleParameters><EPHEMERIS_TYPE>0</EPHEMERIS_TYPE><CLASSIFICATION_TYPE>U</CLASSIFICATION_TYPE><NORAD_CAT_ID>64512</NORAD_CAT_ID><ELEMENT_SET_NO>999</ELEMENT_SET_NO><REV_AT_EPOCH>445</REV_AT_EPOCH><BSTAR>.50429E-3</BSTAR><MEAN_MOTION_DOT>.18961E-3</MEAN_MOTION_DOT><MEAN_MOTION_DDOT>0</MEAN_MOTION_DDOT></tleParameters></data></segment></body></omm>

</ndm>
