KUIPER-00044            
1 64505U 25134F   25198.91667824  .00048472  00000+0  16060-2 0  9992
2 64505  51.8661 213.3303 0010460 204.4899 311.9681 15.30762974  4525
KUIPER-00046            
1 64506U 25134G   25198.42208768  .00025647  00000+0  76440-3 0  9995
2 64506  51.8665 215.6002 0009259 199.3916 160.6719 15.34468756  4927
KUIPER-00047            
1 64507U 25134H   25198.29666199  .00008179  00000+0  25531-3 0  9993
2 64507  51.8627 216.2503 0010146 211.8854 148.1518 15.34047422  4445
KUIPER-00048            
1 64508U 25134J   25198.46199521  .00026614  00000+0  75373-3 0  9996
2 64508  51.8763 215.1349 0002832 184.9873 175.1085 15.36086374  4470
KUIPER-00049            
1 64509U 25134K   25198.34613883  .00016659  00000+0  49051-3 0  9998
2 64509  51.8699 215.8502 0006976 193.0130 167.0677 15.35157312  4890
KUIPER-00050            
1 64510U 25134L   25198.34831721  .00020412  00000+0  60119-3 0  9993
2 64510  51.8717 215.8662 0007286 193.5716 166.5075 15.34999552  4918
KUIPER-00051            
1 64511U 25134M   25198.27581919  .00028947  00000+0  83489-3 0  9993
2 64511  51.8722 216.1330 0005127 187.0103 173.0812 15.35462464  4900
KUIPER-00052            
1 64512U 25134N   25198.32630538  .00018961  00000+0  50429-3 0  9995
2 64512  51.8752 215.7277 0003547 200.8474 159.2369 15.38250448  4451
